[
    {
        "OBJECT_NAME": "QZS-4 (QZSS/PRN 195)",
        "OBJECT_ID": "2017-062A",
        "EPOCH": "2026-07-09T17:46:38.218368",
        "MEAN_MOTION": 1.00291716,
        "ECCENTRICITY": 0.07474153,
        "INCLINATION": 40.0954,
        "RA_OF_ASC_NODE": 343.1995,
        "ARG_OF_PERICENTER": 268.4439,
        "MEAN_ANOMALY": 81.4735,
        "EPHEMERIS_TYPE": 0,
        "CLASSIFICATION_TYPE": "U",
        "NORAD_CAT_ID": 42965,
        "ELEMENT_SET_NO": 999,
        "REV_AT_EPOCH": 3202,
        "BSTAR": 0,
        "MEAN_MOTION_DOT": -3.15e-06,
        "MEAN_MOTION_DDOT": 0
    },
    {
        "OBJECT_NAME": "BEIDOU-3 G1 (PRN 130)",
        "OBJECT_ID": "2018-085A",
        "EPOCH": "2026-07-10T05:48:42.940224",
        "MEAN_MOTION": 1.00272939,
        "ECCENTRICITY": 0.00081988,
        "INCLINATION": 2.9232,
        "RA_OF_ASC_NODE": 96.7668,
        "ARG_OF_PERICENTER": 355.1748,
        "MEAN_ANOMALY": 83.348,
        "EPHEMERIS_TYPE": 0,
        "CLASSIFICATION_TYPE": "U",
        "NORAD_CAT_ID": 43683,
        "ELEMENT_SET_NO": 999,
        "REV_AT_EPOCH": 2829,
        "BSTAR": 0,
        "MEAN_MOTION_DOT": -1.01e-06,
        "MEAN_MOTION_DDOT": 0
    },
    {
        "OBJECT_NAME": "EUTELSAT 5 WEST B (EGNOS/PRN 121)",
        "OBJECT_ID": "2019-067A",
        "EPOCH": "2026-07-10T07:59:38.527584",
        "MEAN_MOTION": 1.00271316,
        "ECCENTRICITY": 0.00030307,
        "INCLINATION": 0.0633,
        "RA_OF_ASC_NODE": 347.278,
        "ARG_OF_PERICENTER": 124.0531,
        "MEAN_ANOMALY": 291.8313,
        "EPHEMERIS_TYPE": 0,
        "CLASSIFICATION_TYPE": "U",
        "NORAD_CAT_ID": 44624,
        "ELEMENT_SET_NO": 999,
        "REV_AT_EPOCH": 2466,
        "BSTAR": 0,
        "MEAN_MOTION_DOT": -3.2e-07,
        "MEAN_MOTION_DDOT": 0
    },
    {
        "OBJECT_NAME": "BEIDOU-3 G2 (PRN 144)",
        "OBJECT_ID": "2020-017A",
        "EPOCH": "2026-07-10T03:43:12.659232",
        "MEAN_MOTION": 1.0026993,
        "ECCENTRICITY": 0.00021908,
        "INCLINATION": 2.9077,
        "RA_OF_ASC_NODE": 47.6544,
        "ARG_OF_PERICENTER": 57.6305,
        "MEAN_ANOMALY": 318.6618,
        "EPHEMERIS_TYPE": 0,
        "CLASSIFICATION_TYPE": "U",
        "NORAD_CAT_ID": 45344,
        "ELEMENT_SET_NO": 999,
        "REV_AT_EPOCH": 2349,
        "BSTAR": 0,
        "MEAN_MOTION_DOT": -1.32e-06,
        "MEAN_MOTION_DDOT": 0
    },
    {
        "OBJECT_NAME": "BEIDOU-3 G3 (PRN 143)",
        "OBJECT_ID": "2020-040A",
        "EPOCH": "2026-07-10T07:17:13.773696",
        "MEAN_MOTION": 1.00266611,
        "ECCENTRICITY": 0.00018525,
        "INCLINATION": 2.5003,
        "RA_OF_ASC_NODE": 67.4792,
        "ARG_OF_PERICENTER": 329.9731,
        "MEAN_ANOMALY": 110.5737,
        "EPHEMERIS_TYPE": 0,
        "CLASSIFICATION_TYPE": "U",
        "NORAD_CAT_ID": 45807,
        "ELEMENT_SET_NO": 999,
        "REV_AT_EPOCH": 2230,
        "BSTAR": 0,
        "MEAN_MOTION_DOT": -3.45e-06,
        "MEAN_MOTION_DDOT": 0
    },
    {
        "OBJECT_NAME": "GALAXY 30 (WAAS/PRN 135)",
        "OBJECT_ID": "2020-056C",
        "EPOCH": "2026-07-10T06:10:05.210400",
        "MEAN_MOTION": 1.00270345,
        "ECCENTRICITY": 0.00019386,
        "INCLINATION": 0.0256,
        "RA_OF_ASC_NODE": 34.1445,
        "ARG_OF_PERICENTER": 79.9597,
        "MEAN_ANOMALY": 141.5979,
        "EPHEMERIS_TYPE": 0,
        "CLASSIFICATION_TYPE": "U",
        "NORAD_CAT_ID": 46114,
        "ELEMENT_SET_NO": 999,
        "REV_AT_EPOCH": 2152,
        "BSTAR": 0,
        "MEAN_MOTION_DOT": 0,
        "MEAN_MOTION_DDOT": 0
    },
    {
        "OBJECT_NAME": "QZS-1R (QZSS/PRN 196)",
        "OBJECT_ID": "2021-096A",
        "EPOCH": "2026-07-09T14:14:06.654912",
        "MEAN_MOTION": 1.00247254,
        "ECCENTRICITY": 0.07549588,
        "INCLINATION": 37.5047,
        "RA_OF_ASC_NODE": 79.2525,
        "ARG_OF_PERICENTER": 272.1428,
        "MEAN_ANOMALY": 281.8869,
        "EPHEMERIS_TYPE": 0,
        "CLASSIFICATION_TYPE": "U",
        "NORAD_CAT_ID": 49336,
        "ELEMENT_SET_NO": 999,
        "REV_AT_EPOCH": 1723,
        "BSTAR": 0,
        "MEAN_MOTION_DOT": -2.79e-06,
        "MEAN_MOTION_DDOT": 0
    },
    {
        "OBJECT_NAME": "QZS-6 (QZSS/PRN 200)",
        "OBJECT_ID": "2025-023A",
        "EPOCH": "2026-07-10T07:11:21.836256",
        "MEAN_MOTION": 1.00268414,
        "ECCENTRICITY": 0.0001819,
        "INCLINATION": 0.023,
        "RA_OF_ASC_NODE": 313.9351,
        "ARG_OF_PERICENTER": 176.0231,
        "MEAN_ANOMALY": 356.5979,
        "EPHEMERIS_TYPE": 0,
        "CLASSIFICATION_TYPE": "U",
        "NORAD_CAT_ID": 62876,
        "ELEMENT_SET_NO": 999,
        "REV_AT_EPOCH": 518,
        "BSTAR": 0,
        "MEAN_MOTION_DOT": -2.22e-06,
        "MEAN_MOTION_DDOT": 0
    }
]